NORAD_CAT_ID,OBJECT_NAME,OBJECT_TYPE,EPOCH,MEAN_MOTION,ECCENTRICITY,INCLINATION,RA_OF_ASC_NODE,ARG_OF_PERICENTER,MEAN_ANOMALY,BSTAR,MEAN_MOTION_DOT,MEAN_MOTION_DDOT,TLE_LINE0,TLE_LINE1,TLE_LINE2,SEMIMAJOR_AXIS,PERIOD,APOGEE,PERIGEE,DECAYED
54778.0,STARLINK-5450,PAYLOAD,2023-11-23 21:53:31,15.08832149,0.0001722,53.2162,185.6239,85.821,274.2978,-0.00019688,-3.419e-05,0.0,0 STARLINK-5450,1 54778U 22175W   23327.91216718 -.00003419  00000-0 -19688-3 0  9994,2 54778  53.2162 185.6239 0001722  85.8210 274.2978 15.08832149 53808,6917.904,95.438,540.961,538.578,0.0
54778.0,STARLINK-5450,PAYLOAD,2023-11-24 20:08:56,15.08828755,0.0001618,53.2157,181.4615,93.2464,266.8714,-0.00034951,-5.844e-05,0.0,0 STARLINK-5450,1 54778U 22175W   23328.83954220 -.00005844  00000-0 -34951-3 0  9997,2 54778  53.2157 181.4615 0001618  93.2464 266.8714 15.08828755 51780,6917.915,95.438,540.899,538.66,0.0
54778.0,STARLINK-5450,PAYLOAD,2023-11-24 21:44:19,15.08827799,0.0001782,53.2163,181.1623,75.3259,284.7931,-0.00031739,-5.334e-05,0.0,0 STARLINK-5450,1 54778U 22175W   23328.90578287 -.00005334  00000-0 -31739-3 0  9995,2 54778  53.2163 181.1623 0001782  75.3259 284.7931 15.08827799 53956,6917.918,95.438,541.015,538.55,0.0
54778.0,STARLINK-5450,PAYLOAD,2023-11-24 23:19:42,15.08828373,0.0001772,53.2165,180.8641,81.0652,279.0541,-0.0003063,-5.158e-05,0.0,0 STARLINK-5450,1 54778U 22175W   23328.97202241 -.00005158  00000-0 -30630-3 0  9999,2 54778  53.2165 180.8641 0001772  81.0652 279.0541 15.08828373 53968,6917.916,95.438,541.007,538.555,0.0
54778.0,STARLINK-5450,PAYLOAD,2023-11-25 21:35:04,15.08845339,0.0002018,53.2168,176.7025,64.4628,295.6572,0.00028592,4.266e-05,0.0,0 STARLINK-5450,1 54778U 22175W   23329.89935629  .00004266  00000-0  28592-3 0  9995,2 54778  53.2168 176.7025 0002018  64.4628 295.6572 15.08845339 54109,6917.864,95.437,541.125,538.333,0.0
54778.0,STARLINK-5450,PAYLOAD,2023-11-26 19:50:28,15.08845716,0.0001894,53.2168,172.5393,67.6748,292.4445,0.000237,3.486e-05,0.0,0 STARLINK-5450,1 54778U 22175W   23330.82671664  .00003486  00000-0  23700-3 0  9995,2 54778  53.2168 172.5393 0001894  67.6748 292.4445 15.08845716 52088,6917.863,95.437,541.038,538.418,0.0
54778.0,STARLINK-5450,PAYLOAD,2023-11-27 13:19:43,15.08852493,0.000185,53.2171,169.2711,66.0526,294.066,-0.00015114,-2.694e-05,0.0,0 STARLINK-5450,1 54778U 22175W   23331.55536291 -.00002694  00000-0 -15114-3 0  9994,2 54778  53.2171 169.2711 0001850  66.0526 294.0660 15.08852493 54357,6917.842,95.437,540.987,538.427,0.0
54778.0,STARLINK-5450,PAYLOAD,2023-11-27 18:05:52,15.08854408,0.0002074,53.2179,168.374,95.3097,264.8131,-0.00013548,-2.445e-05,0.0,0 STARLINK-5450,1 54778U 22175W   23331.75407731 -.00002445  00000-0 -13548-3 0  9995,2 54778  53.2179 168.3740 0002074  95.3097 264.8131 15.08854408 54383,6917.836,95.437,541.136,538.267,0.0
54778.0,STARLINK-5450,PAYLOAD,2023-11-28 13:10:29,15.08839751,0.000144,53.2168,164.8088,90.1462,269.9695,3.4295e-06,-2.33e-06,0.0,0 STARLINK-5450,1 54778U 22175W   23332.54895389 -.00000233  00000-0  34295-5 0  9999,2 54778  53.2168 164.8088 0001440  90.1462 269.9695 15.08839751 54501,6917.881,95.438,540.742,538.75,0.0
54778.0,STARLINK-5450,PAYLOAD,2023-11-28 19:32:01,15.08855885,0.000144,53.217,163.6201,88.9765,271.1392,-0.0001212,-2.217e-05,0.0,0 STARLINK-5450,1 54778U 22175W   23332.81390894 -.00002217  00000-0 -12120-3 0  9996,2 54778  53.2170 163.6201 0001440  88.9765 271.1392 15.08855885 52388,6917.832,95.437,540.693,538.701,0.0
54778.0,STARLINK-5450,PAYLOAD,2023-11-29 13:01:14,15.08858175,0.0001539,53.2161,160.3491,78.9427,281.1738,0.00015929,2.249e-05,0.0,0 STARLINK-5450,1 54778U 22175W   23333.54252841  .00002249  00000-0  15929-3 0  9999,2 54778  53.2161 160.3491 0001539  78.9427 281.1738 15.08858175 54658,6917.825,95.436,540.754,538.625,0.0
54778.0,STARLINK-5450,PAYLOAD,2023-11-29 19:22:48,15.08839377,0.0001347,53.2162,159.1602,73.9566,286.1574,-7.4365e-07,-3e-06,0.0,0 STARLINK-5450,1 54778U 22175W   23333.80750305 -.00000300  00000-0 -74365-6 0  9996,2 54778  53.2162 159.1602 0001347  73.9566 286.1574 15.08839377 52536,6917.882,95.438,540.679,538.815,0.0
54778.0,STARLINK-5450,PAYLOAD,2023-11-30 19:13:36,15.08830991,0.0001573,53.2174,154.701,95.6978,264.4194,-0.00010971,-2.033e-05,0.0,0 STARLINK-5450,1 54778U 22175W   23334.80111725 -.00002033  00000-0 -10971-3 0  9999,2 54778  53.2174 154.7010 0001573  95.6978 264.4194 15.08830991 52688,6917.908,95.438,540.861,538.685,0.0
54778.0,STARLINK-5450,PAYLOAD,2023-12-01 17:28:59,15.08876821,0.0001617,53.2172,150.5367,92.78,267.3377,-0.00056115,-9.217e-05,0.0,0 STARLINK-5450,1 54778U 22175W   23335.72846593 -.00009217  00000-0 -56115-3 0  9990,2 54778  53.2172 150.5367 0001617  92.7800 267.3377 15.08876821 52829,6917.768,95.435,540.751,538.514,0.0
54778.0,STARLINK-5450,PAYLOAD,2023-12-02 18:55:09,15.08837336,0.0001389,53.2165,145.7748,87.0975,273.0176,0.00011549,1.55e-05,0.0,0 STARLINK-5450,1 54778U 22175W   23336.78830934  .00001550  00000-0  11549-3 0  9991,2 54778  53.2165 145.7748 0001389  87.0975 273.0176 15.08837336 52982,6917.889,95.438,540.714,538.793,0.0
54778.0,STARLINK-5450,PAYLOAD,2023-12-03 18:45:58,15.08829292,0.000122,53.2166,141.3157,95.7429,264.3702,-8.5416e-05,-1.647e-05,0.0,0 STARLINK-5450,1 54778U 22175W   23337.78192716 -.00001647  00000-0 -85416-4 0  9995,2 54778  53.2166 141.3157 0001220  95.7429 264.3702 15.08829292 53131,6917.913,95.438,540.622,538.934,0.0
54778.0,STARLINK-5450,PAYLOAD,2023-12-04 10:39:50,15.08834108,0.0001228,53.2165,138.341,100.3865,259.7266,-0.00012579,-2.289e-05,0.0,0 STARLINK-5450,1 54778U 22175W   23338.44433036 -.00002289  00000-0 -12579-3 0  9994,2 54778  53.2165 138.3410 0001228 100.3865 259.7266 15.08834108 55398,6917.898,95.438,540.613,538.914,0.0
54778.0,STARLINK-5450,PAYLOAD,2023-12-05 10:30:36,15.08835509,0.0001205,53.2171,133.8857,74.1588,285.9537,0.0001015,1.328e-05,0.0,0 STARLINK-5450,1 54778U 22175W   23339.43792334  .00001328  00000-0  10150-3 0  9997,2 54778  53.2171 133.8857 0001205  74.1588 285.9537 15.08835509 53380,6917.894,95.438,540.593,538.926,0.0
54778.0,STARLINK-5450,PAYLOAD,2023-12-06 13:32:09,15.08840512,0.0001121,53.2167,128.8276,90.7444,269.3676,5.1467e-05,5.31e-06,0.0,0 STARLINK-5450,1 54778U 22175W   23340.56400000  .00000531  00000-0  51467-4 0  9991,2 54778  53.2167 128.8276 0001121  90.7444 269.3676 15.08840512 55715,6917.879,95.438,540.519,538.968,0.0
54778.0,STARLINK-5450,PAYLOAD,2023-12-06 19:53:41,15.08844669,0.0001317,53.2173,127.6367,105.9621,254.1517,2.3612e-05,8.8e-07,0.0,0 STARLINK-5450,1 54778U 22175W   23340.82895806  .00000088  00000-0  23612-4 0  9990,2 54778  53.2173 127.6367 0001317 105.9621 254.1517 15.08844669 53590,6917.866,95.437,540.642,538.82,0.0
54778.0,STARLINK-5450,PAYLOAD,2023-12-07 13:22:57,15.0883663,0.0001324,53.2149,124.3639,101.1192,258.9949,-9.0851e-05,-1.733e-05,0.0,0 STARLINK-5450,1 54778U 22175W   23341.55760725 -.00001733  00000-0 -90851-4 0  9991,2 54778  53.2149 124.3639 0001324 101.1192 258.9949 15.08836630 55860,6917.891,95.438,540.672,538.84,0.0
54778.0,STARLINK-5450,PAYLOAD,2023-12-07 19:44:30,15.0883436,0.0001327,53.2156,123.175,101.7589,258.3552,-0.00010092,-1.893e-05,0.0,0 STARLINK-5450,1 54778U 22175W   23341.82256947 -.00001893  00000-0 -10092-3 0  9992,2 54778  53.2156 123.1750 0001327 101.7589 258.3552 15.08834360 53745,6917.898,95.438,540.681,538.845,0.0
54778.0,STARLINK-5450,PAYLOAD,2023-12-08 10:02:57,15.08840178,0.0001302,53.2157,120.5003,96.7794,263.3346,-2.256e-06,-3.24e-06,0.0,0 STARLINK-5450,1 54778U 22175W   23342.41872212 -.00000324  00000-0 -22560-5 0  9990,2 54778  53.2157 120.5003 0001302  96.7794 263.3346 15.08840178 53833,6917.88,95.438,540.646,538.844,0.0
54778.0,STARLINK-5450,PAYLOAD,2023-12-08 13:13:43,15.08843199,0.0001326,53.2163,119.9053,99.9938,260.1203,1.9417e-05,2.1e-07,0.0,0 STARLINK-5450,1 54778U 22175W   23342.55119925  .00000021  00000-0  19417-4 0  9998,2 54778  53.2163 119.9053 0001326  99.9938 260.1203 15.08843199 56014,6917.871,95.437,540.653,538.818,0.0
54778.0,STARLINK-5450,PAYLOAD,2023-12-09 13:04:31,15.08832889,0.0001233,53.2179,115.4469,93.0458,267.0676,-1.6997e-05,-5.58e-06,0.0,0 STARLINK-5450,1 54778U 22175W   23343.54480987 -.00000558  00000-0 -16997-4 0  9994,2 54778  53.2179 115.4469 0001233  93.0458 267.0676 15.08832889 56162,6917.902,95.438,540.62,538.914,0.0
54778.0,STARLINK-5450,PAYLOAD,2023-12-09 17:50:40,15.08835664,0.0001206,53.2175,114.5549,85.0092,275.1038,5.5161e-06,-2e-06,0.0,0 STARLINK-5450,1 54778U 22175W   23343.74352816 -.00000200  00000-0  55161-5 0  9995,2 54778  53.2175 114.5549 0001206  85.0092 275.1038 15.08835664 54032,6917.894,95.438,540.593,538.924,0.0
54778.0,STARLINK-5450,PAYLOAD,2023-12-10 14:30:41,15.08827767,0.0001726,53.2168,110.6871,96.9237,263.1951,0.00016266,2.301e-05,0.0,0 STARLINK-5450,1 54778U 22175W   23344.60464854  .00002301  00000-0  16266-3 0  9991,2 54778  53.2168 110.6871 0001726  96.9237 263.1951 15.08827767 56328,6917.918,95.438,540.977,538.589,0.0
54778.0,STARLINK-5450,PAYLOAD,2023-12-11 14:21:28,15.08837483,0.0001357,53.2173,106.2272,77.8799,282.2345,7.2251e-06,-1.73e-06,0.0,0 STARLINK-5450,1 54778U 22175W   23345.59824876 -.00000173  00000-0  72251-5 0  9998,2 54778  53.2173 106.2272 0001357  77.8799 282.2345 15.08837483 56472,6917.888,95.438,540.692,538.814,0.0
54778.0,STARLINK-5450,PAYLOAD,2023-12-11 15:56:51,15.08838906,0.0001388,53.2177,105.9316,76.2292,283.8855,1.8963e-05,1.4e-07,0.0,0 STARLINK-5450,1 54778U 22175W   23345.66448784  .00000014  00000-0  18963-4 0  9998,2 54778  53.2177 105.9316 0001388  76.2292 283.8855 15.08838906 54322,6917.884,95.438,540.709,538.789,0.0
54778.0,STARLINK-5450,PAYLOAD,2023-12-12 14:12:15,15.08842261,0.0001679,53.2183,101.7684,65.0249,295.0917,-8.6495e-07,-3.02e-06,0.0,0 STARLINK-5450,1 54778U 22175W   23346.59184721 -.00000302  00000-0 -86495-6 0  9998,2 54778  53.2183 101.7684 0001679  65.0249 295.0917 15.08842261 56620,6917.873,95.437,540.9,538.577,0.0
